ONEWEB-0080             
1 45426U 20020C   24226.56353668  .00000527  00000+0  14501-2 0  9999
2 45426  87.8997 154.9800 0001639  77.9577 282.1735 13.11416070214547
ONEWEB-0090             
1 45427U 20020D   24226.80937616  .00000136  00000+0  34837-3 0  9999
2 45427  87.9002 154.9171 0002020  77.7847 282.3507 13.11417280214543
ONEWEB-0061             
1 45428U 20020E   24226.76515315 -.00000320  00000+0 -93926-3 0  9994
2 45428  87.9002 154.9216 0001970  75.5453 284.5894 13.11417073214493
ONEWEB-0081             
1 45429U 20020F   24226.74663068 -.00000376  00000+0 -10961-2 0  9990
2 45429  87.9000 154.9434 0001982  70.6615 289.4727 13.11413938214601
ONEWEB-0069             
1 45430U 20020G   24227.19425051  .00000154  00000+0  39782-3 0  9995
2 45430  87.8997 154.8439 0001956  79.2713 280.8635 13.11414407214601
ONEWEB-0031             
1 45431U 20020H   24227.16543252  .00000342  00000+0  92997-3 0  9993
2 45431  87.9006 154.8611 0002049  77.9914 282.1444 13.11418214214577
ONEWEB-0027             
1 45432U 20020J   24227.19498064  .00000145  00000+0  34130-3 0  9993
2 45432  87.9181 139.6828 0002179  84.9756 275.1624 13.17651801217863
ONEWEB-0064             
1 45433U 20020K   24226.78225586  .00000376  00000+0  10252-2 0  9999
2 45433  87.9002 154.9431 0001986  84.0865 276.0489 13.11417513214559
